IRIDIUM 33 DEB          
1 36017U 97051UY  17345.26346328  .00003932  00000-0  53811-3 0  9991
2 36017  86.3691 170.3869 0015795  89.1421  37.8017 14.78196562235430
